{
"type": "FeatureCollection",
"name": "mitcham-lga",
"crs": { "type": "name", "properties": { "name": "urn:ogc:def:crs:OGC:1.3:CRS84" } },
"features": [
{ "type": "Feature", "properties": { "name": "City of Mitcham" }, "geometry": { "type": "Polygon", "coordinates": [ [ [ 138.574646, -34.989598 ], [ 138.576169, -35.011028 ], [ 138.571312, -35.015267 ], [ 138.562959, -35.023294 ], [ 138.56343, -35.023504 ], [ 138.563552, -35.023831 ], [ 138.563779, -35.026143 ], [ 138.563512, -35.026643 ], [ 138.563473, -35.027589 ], [ 138.56381, -35.028434 ], [ 138.56362, -35.029647 ], [ 138.564143, -35.029748 ], [ 138.565083, -35.02946 ], [ 138.56566, -35.029607 ], [ 138.567237, -35.030729 ], [ 138.567345, -35.031182 ], [ 138.567186, -35.031747 ], [ 138.567968, -35.031979 ], [ 138.568804, -35.032618 ], [ 138.569764, -35.032385 ], [ 138.570057, -35.03249 ], [ 138.570275, -35.03399 ], [ 138.57225, -35.035031 ], [ 138.572131, -35.035362 ], [ 138.570888, -35.035869 ], [ 138.570707, -35.036072 ], [ 138.570742, -35.036362 ], [ 138.571612, -35.036586 ], [ 138.571758, -35.036842 ], [ 138.571649, -35.037209 ], [ 138.571107, -35.037721 ], [ 138.571242, -35.038003 ], [ 138.572732, -35.038376 ], [ 138.573317, -35.038304 ], [ 138.574804, -35.037642 ], [ 138.576566, -35.037704 ], [ 138.577001, -35.037848 ], [ 138.578047, -35.03694 ], [ 138.578688, -35.036755 ], [ 138.57948, -35.037014 ], [ 138.580203, -35.037047 ], [ 138.580493, -35.037224 ], [ 138.580698, -35.037706 ], [ 138.581078, -35.03783 ], [ 138.581828, -35.037305 ], [ 138.584317, -35.036912 ], [ 138.584711, -35.03766 ], [ 138.58575, -35.037752 ], [ 138.586541, -35.038065 ], [ 138.586779, -35.03926 ], [ 138.587425, -35.039661 ], [ 138.587329, -35.040326 ], [ 138.587454, -35.040536 ], [ 138.588996, -35.041066 ], [ 138.589511, -35.041415 ], [ 138.590258, -35.040988 ], [ 138.590929, -35.042399 ], [ 138.591964, -35.042241 ], [ 138.594177, -35.044169 ], [ 138.594947, -35.044437 ], [ 138.595052, -35.045728 ], [ 138.596642, -35.045687 ], [ 138.597559, -35.047301 ], [ 138.598412, -35.048147 ], [ 138.599045, -35.049407 ], [ 138.599485, -35.049353 ], [ 138.599996, -35.04875 ], [ 138.602394, -35.049089 ], [ 138.602977, -35.04867 ], [ 138.603142, -35.047973 ], [ 138.603403, -35.047671 ], [ 138.603656, -35.047631 ], [ 138.604357, -35.048051 ], [ 138.605379, -35.048362 ], [ 138.606149, -35.049661 ], [ 138.60646, -35.049893 ], [ 138.607057, -35.049715 ], [ 138.607721, -35.049152 ], [ 138.608039, -35.049131 ], [ 138.60833, -35.04929 ], [ 138.608857, -35.050048 ], [ 138.609524, -35.050467 ], [ 138.610245, -35.049796 ], [ 138.611408, -35.049387 ], [ 138.611441, -35.049017 ], [ 138.610698, -35.048248 ], [ 138.610652, -35.04795 ], [ 138.610877, -35.047756 ], [ 138.611534, -35.047787 ], [ 138.61208, -35.047464 ], [ 138.612397, -35.046749 ], [ 138.612834, -35.046785 ], [ 138.613268, -35.047448 ], [ 138.613586, -35.047585 ], [ 138.615247, -35.047146 ], [ 138.617214, -35.046396 ], [ 138.618106, -35.045812 ], [ 138.618662, -35.045697 ], [ 138.619232, -35.044978 ], [ 138.621091, -35.044366 ], [ 138.621506, -35.043388 ], [ 138.62186, -35.043091 ], [ 138.622361, -35.042969 ], [ 138.623525, -35.043202 ], [ 138.623948, -35.043143 ], [ 138.624118, -35.042336 ], [ 138.624976, -35.041629 ], [ 138.625228, -35.04112 ], [ 138.625632, -35.040818 ], [ 138.626175, -35.039633 ], [ 138.626, -35.039151 ], [ 138.625568, -35.038636 ], [ 138.623679, -35.037324 ], [ 138.623453, -35.036689 ], [ 138.623583, -35.036367 ], [ 138.624075, -35.036095 ], [ 138.624497, -35.035351 ], [ 138.625665, -35.034114 ], [ 138.626055, -35.03401 ], [ 138.627285, -35.034249 ], [ 138.62777, -35.034096 ], [ 138.629049, -35.032327 ], [ 138.629787, -35.031801 ], [ 138.63061, -35.031754 ], [ 138.632134, -35.032117 ], [ 138.632871, -35.032799 ], [ 138.633404, -35.033683 ], [ 138.634035, -35.034237 ], [ 138.634529, -35.034949 ], [ 138.63623, -35.035262 ], [ 138.638129, -35.035921 ], [ 138.639075, -35.035822 ], [ 138.641533, -35.037231 ], [ 138.641843, -35.037129 ], [ 138.642267, -35.036489 ], [ 138.642965, -35.03624 ], [ 138.644662, -35.036292 ], [ 138.646953, -35.036679 ], [ 138.649899, -35.036375 ], [ 138.651573, -35.036471 ], [ 138.651772, -35.03642 ], [ 138.651409, -35.03608 ], [ 138.651493, -35.035838 ], [ 138.651885, -35.035548 ], [ 138.65249, -35.035443 ], [ 138.652825, -35.035585 ], [ 138.652772, -35.036323 ], [ 138.652952, -35.036561 ], [ 138.655224, -35.037634 ], [ 138.655525, -35.037523 ], [ 138.655306, -35.036856 ], [ 138.655442, -35.036564 ], [ 138.656278, -35.036392 ], [ 138.656805, -35.036662 ], [ 138.657126, -35.037072 ], [ 138.657185, -35.037538 ], [ 138.657394, -35.037541 ], [ 138.658139, -35.03698 ], [ 138.660123, -35.037738 ], [ 138.660485, -35.03761 ], [ 138.660811, -35.037172 ], [ 138.66143, -35.036895 ], [ 138.662087, -35.037115 ], [ 138.662123, -35.036685 ], [ 138.662308, -35.036514 ], [ 138.663223, -35.036508 ], [ 138.663062, -35.035274 ], [ 138.663173, -35.035074 ], [ 138.663793, -35.035401 ], [ 138.664385, -35.036501 ], [ 138.664801, -35.03654 ], [ 138.665076, -35.036092 ], [ 138.665514, -35.034527 ], [ 138.667589, -35.034004 ], [ 138.668466, -35.033651 ], [ 138.668849, -35.033271 ], [ 138.669993, -35.033155 ], [ 138.670485, -35.031472 ], [ 138.671233, -35.030756 ], [ 138.671681, -35.030659 ], [ 138.672189, -35.031039 ], [ 138.673287, -35.031008 ], [ 138.674166, -35.031446 ], [ 138.675135, -35.031525 ], [ 138.675546, -35.031335 ], [ 138.675624, -35.030507 ], [ 138.676047, -35.03008 ], [ 138.675865, -35.029413 ], [ 138.673401, -35.028521 ], [ 138.67197, -35.027149 ], [ 138.671638, -35.026006 ], [ 138.675584, -35.015608 ], [ 138.681387, -35.007458 ], [ 138.679821, -35.007753 ], [ 138.677069, -35.007325 ], [ 138.680021, -35.000422 ], [ 138.676081, -34.99998 ], [ 138.677605, -34.999002 ], [ 138.675241, -34.990667 ], [ 138.674235, -34.990509 ], [ 138.671219, -34.989486 ], [ 138.671399, -34.988126 ], [ 138.672447, -34.987733 ], [ 138.672626, -34.986446 ], [ 138.673752, -34.985276 ], [ 138.67157, -34.985209 ], [ 138.670803, -34.984757 ], [ 138.669404, -34.985798 ], [ 138.665171, -34.981662 ], [ 138.666999, -34.980366 ], [ 138.667416, -34.980781 ], [ 138.669963, -34.978993 ], [ 138.670041, -34.978219 ], [ 138.675338, -34.974486 ], [ 138.673512, -34.973822 ], [ 138.673439, -34.973586 ], [ 138.673123, -34.973473 ], [ 138.671501, -34.974346 ], [ 138.670866, -34.973334 ], [ 138.671398, -34.973152 ], [ 138.671373, -34.972878 ], [ 138.670487, -34.9717 ], [ 138.670529, -34.970935 ], [ 138.671359, -34.967924 ], [ 138.67025, -34.967395 ], [ 138.669772, -34.967205 ], [ 138.668223, -34.967027 ], [ 138.667065, -34.967086 ], [ 138.665921, -34.967353 ], [ 138.663869, -34.968276 ], [ 138.660618, -34.969448 ], [ 138.65521, -34.97269 ], [ 138.65371, -34.973013 ], [ 138.65212, -34.972712 ], [ 138.651454, -34.972341 ], [ 138.650868, -34.97178 ], [ 138.650477, -34.971125 ], [ 138.649964, -34.968679 ], [ 138.648011, -34.965605 ], [ 138.647247, -34.965012 ], [ 138.644977, -34.96394 ], [ 138.644074, -34.963325 ], [ 138.643505, -34.963683 ], [ 138.572983, -34.967267 ], [ 138.574646, -34.989598 ] ] ] } }
]
}
