{
"type": "FeatureCollection",
"name": "mitcham-suburbs",
"crs": { "type": "name", "properties": { "name": "urn:ogc:def:crs:OGC:1.3:CRS84" } },
"features": [
{ "type": "Feature", "properties": { "name": "Bedford Park" }, "geometry": { "type": "Polygon", "coordinates": [ [ [ 138.569852, -35.016628 ], [ 138.558859, -35.017138 ], [ 138.559454, -35.026032 ], [ 138.562959, -35.023294 ], [ 138.56343, -35.023504 ], [ 138.563552, -35.023831 ], [ 138.563779, -35.026143 ], [ 138.563466, -35.027084 ], [ 138.563499, -35.027824 ], [ 138.56381, -35.028434 ], [ 138.563663, -35.029693 ], [ 138.564143, -35.029748 ], [ 138.565083, -35.02946 ], [ 138.56566, -35.029607 ], [ 138.567237, -35.030729 ], [ 138.567345, -35.031182 ], [ 138.567186, -35.031747 ], [ 138.567968, -35.031979 ], [ 138.568804, -35.032618 ], [ 138.569764, -35.032385 ], [ 138.570057, -35.03249 ], [ 138.570164, -35.033616 ], [ 138.577787, -35.033223 ], [ 138.576169, -35.011028 ], [ 138.569852, -35.016628 ] ] ] } },
{ "type": "Feature", "properties": { "name": "Belair" }, "geometry": { "type": "Polygon", "coordinates": [ [ [ 138.676267, -35.014678 ], [ 138.677249, -35.014987 ], [ 138.678189, -35.014941 ], [ 138.678685, -35.014753 ], [ 138.679213, -35.014257 ], [ 138.679447, -35.013902 ], [ 138.677257, -35.01335 ], [ 138.681387, -35.007458 ], [ 138.679821, -35.007753 ], [ 138.676411, -35.007221 ], [ 138.674863, -35.006525 ], [ 138.670562, -35.006058 ], [ 138.66837, -35.005243 ], [ 138.667719, -35.004648 ], [ 138.665209, -35.003418 ], [ 138.66398, -35.00269 ], [ 138.663257, -35.002059 ], [ 138.665213, -35.000019 ], [ 138.657635, -34.99694 ], [ 138.657595, -34.996481 ], [ 138.652733, -34.996741 ], [ 138.652259, -34.990437 ], [ 138.654079, -34.990334 ], [ 138.653916, -34.989879 ], [ 138.653594, -34.989549 ], [ 138.652624, -34.989339 ], [ 138.651702, -34.988843 ], [ 138.650987, -34.990503 ], [ 138.637499, -34.991204 ], [ 138.637862, -34.9917 ], [ 138.63663, -34.993384 ], [ 138.636653, -34.993658 ], [ 138.634008, -34.99383 ], [ 138.633721, -34.993156 ], [ 138.628027, -34.99341 ], [ 138.62801, -34.993125 ], [ 138.62734, -34.99294 ], [ 138.627291, -34.991697 ], [ 138.621756, -34.992056 ], [ 138.621381, -34.991735 ], [ 138.621185, -34.992046 ], [ 138.620908, -34.992091 ], [ 138.615917, -34.992286 ], [ 138.616034, -34.994345 ], [ 138.615015, -34.994445 ], [ 138.614876, -34.994576 ], [ 138.61368, -34.994578 ], [ 138.613729, -34.996166 ], [ 138.612669, -34.996012 ], [ 138.612323, -34.996482 ], [ 138.612204, -34.996326 ], [ 138.610452, -34.998305 ], [ 138.610943, -34.998344 ], [ 138.611031, -34.999489 ], [ 138.611303, -34.999686 ], [ 138.611262, -34.999883 ], [ 138.609635, -35.000066 ], [ 138.607751, -34.999657 ], [ 138.606395, -34.99989 ], [ 138.605703, -35.000356 ], [ 138.602469, -35.000291 ], [ 138.602355, -34.998925 ], [ 138.601327, -35.000173 ], [ 138.60078, -35.00165 ], [ 138.600709, -35.002577 ], [ 138.600952, -35.004754 ], [ 138.600762, -35.006364 ], [ 138.600981, -35.010446 ], [ 138.601761, -35.009886 ], [ 138.601975, -35.009902 ], [ 138.602044, -35.010676 ], [ 138.604592, -35.010244 ], [ 138.603166, -35.011515 ], [ 138.602857, -35.011973 ], [ 138.602656, -35.012608 ], [ 138.602703, -35.012961 ], [ 138.603223, -35.013528 ], [ 138.604028, -35.013518 ], [ 138.605003, -35.013028 ], [ 138.606173, -35.012165 ], [ 138.606606, -35.012153 ], [ 138.608631, -35.011417 ], [ 138.608924, -35.011574 ], [ 138.609705, -35.010495 ], [ 138.610636, -35.010226 ], [ 138.612473, -35.010294 ], [ 138.613048, -35.01004 ], [ 138.6141, -35.008294 ], [ 138.614471, -35.008499 ], [ 138.614888, -35.009532 ], [ 138.616491, -35.010172 ], [ 138.617908, -35.008035 ], [ 138.61964, -35.00657 ], [ 138.633124, -35.00591 ], [ 138.633749, -35.013955 ], [ 138.634019, -35.014366 ], [ 138.636947, -35.016162 ], [ 138.640815, -35.015921 ], [ 138.642382, -35.015375 ], [ 138.645418, -35.014972 ], [ 138.646382, -35.015326 ], [ 138.646837, -35.015899 ], [ 138.648654, -35.015738 ], [ 138.649537, -35.016303 ], [ 138.649561, -35.016875 ], [ 138.650595, -35.018261 ], [ 138.650947, -35.019676 ], [ 138.651966, -35.02048 ], [ 138.653594, -35.021379 ], [ 138.654887, -35.022652 ], [ 138.656055, -35.022404 ], [ 138.657028, -35.022935 ], [ 138.658073, -35.022708 ], [ 138.658643, -35.023254 ], [ 138.659399, -35.023397 ], [ 138.65991, -35.023829 ], [ 138.660662, -35.023893 ], [ 138.661233, -35.023667 ], [ 138.662695, -35.023488 ], [ 138.667823, -35.023967 ], [ 138.671039, -35.025884 ], [ 138.671672, -35.026031 ], [ 138.673328, -35.025798 ], [ 138.673936, -35.025416 ], [ 138.67521, -35.025085 ], [ 138.675811, -35.024635 ], [ 138.676469, -35.023818 ], [ 138.677624, -35.023125 ], [ 138.678377, -35.022938 ], [ 138.678687, -35.022425 ], [ 138.680312, -35.021409 ], [ 138.679851, -35.020955 ], [ 138.679632, -35.021107 ], [ 138.679289, -35.021012 ], [ 138.678681, -35.021192 ], [ 138.678057, -35.02067 ], [ 138.676058, -35.01951 ], [ 138.674288, -35.019075 ], [ 138.675584, -35.015608 ], [ 138.676267, -35.014678 ] ] ] } },
{ "type": "Feature", "properties": { "name": "Bellevue Heights" }, "geometry": { "type": "Polygon", "coordinates": [ [ [ 138.590108, -35.035969 ], [ 138.590326, -35.035149 ], [ 138.591033, -35.034502 ], [ 138.591702, -35.034392 ], [ 138.592963, -35.033774 ], [ 138.594308, -35.0337 ], [ 138.595895, -35.033368 ], [ 138.595675, -35.030238 ], [ 138.594172, -35.028408 ], [ 138.591563, -35.028443 ], [ 138.588932, -35.027258 ], [ 138.58802, -35.026313 ], [ 138.586423, -35.024206 ], [ 138.583884, -35.021845 ], [ 138.580063, -35.019094 ], [ 138.577408, -35.01789 ], [ 138.576695, -35.017234 ], [ 138.577787, -35.033223 ], [ 138.570164, -35.033616 ], [ 138.570275, -35.03399 ], [ 138.570543, -35.034194 ], [ 138.57225, -35.035031 ], [ 138.572131, -35.035362 ], [ 138.570888, -35.035869 ], [ 138.570707, -35.036072 ], [ 138.570742, -35.036362 ], [ 138.571612, -35.036586 ], [ 138.571758, -35.036842 ], [ 138.571649, -35.037209 ], [ 138.571107, -35.037721 ], [ 138.571113, -35.03791 ], [ 138.572732, -35.038376 ], [ 138.573317, -35.038304 ], [ 138.574804, -35.037642 ], [ 138.576566, -35.037704 ], [ 138.577001, -35.037848 ], [ 138.578047, -35.03694 ], [ 138.578688, -35.036755 ], [ 138.580441, -35.03716 ], [ 138.580603, -35.037586 ], [ 138.580936, -35.037828 ], [ 138.581345, -35.03771 ], [ 138.581828, -35.037305 ], [ 138.584219, -35.036883 ], [ 138.584711, -35.03766 ], [ 138.586311, -35.037955 ], [ 138.586676, -35.037596 ], [ 138.588828, -35.036849 ], [ 138.590108, -35.035969 ] ] ] } },
{ "type": "Feature", "properties": { "name": "Blackwood" }, "geometry": { "type": "Polygon", "coordinates": [ [ [ 138.621995, -35.030806 ], [ 138.625461, -35.03062 ], [ 138.625311, -35.030144 ], [ 138.625591, -35.029366 ], [ 138.624516, -35.027535 ], [ 138.623691, -35.024847 ], [ 138.621783, -35.024805 ], [ 138.621706, -35.024691 ], [ 138.622261, -35.023865 ], [ 138.619393, -35.023198 ], [ 138.619596, -35.022686 ], [ 138.619621, -35.021864 ], [ 138.618579, -35.019857 ], [ 138.618446, -35.018904 ], [ 138.61855, -35.01832 ], [ 138.619069, -35.01742 ], [ 138.620363, -35.015998 ], [ 138.621594, -35.01498 ], [ 138.62231, -35.014134 ], [ 138.622756, -35.013305 ], [ 138.623191, -35.011711 ], [ 138.623325, -35.009553 ], [ 138.624394, -35.006347 ], [ 138.61964, -35.00657 ], [ 138.617908, -35.008035 ], [ 138.616491, -35.010172 ], [ 138.614888, -35.009532 ], [ 138.614471, -35.008499 ], [ 138.6141, -35.008294 ], [ 138.613048, -35.01004 ], [ 138.612473, -35.010294 ], [ 138.610636, -35.010226 ], [ 138.609705, -35.010495 ], [ 138.608924, -35.011574 ], [ 138.608631, -35.011417 ], [ 138.606606, -35.012153 ], [ 138.606173, -35.012165 ], [ 138.605003, -35.013028 ], [ 138.604028, -35.013518 ], [ 138.603223, -35.013528 ], [ 138.602886, -35.013288 ], [ 138.602656, -35.012608 ], [ 138.603166, -35.011515 ], [ 138.604592, -35.010244 ], [ 138.602044, -35.010676 ], [ 138.602491, -35.015768 ], [ 138.603083, -35.015821 ], [ 138.604061, -35.016506 ], [ 138.60593, -35.016512 ], [ 138.606855, -35.016723 ], [ 138.607372, -35.016948 ], [ 138.607888, -35.017461 ], [ 138.60773, -35.017895 ], [ 138.608855, -35.018282 ], [ 138.609438, -35.026067 ], [ 138.608604, -35.027753 ], [ 138.607955, -35.028574 ], [ 138.607168, -35.029158 ], [ 138.605178, -35.030083 ], [ 138.604119, -35.030305 ], [ 138.602294, -35.030116 ], [ 138.601367, -35.030171 ], [ 138.600506, -35.030482 ], [ 138.599265, -35.031332 ], [ 138.59816, -35.031643 ], [ 138.596918, -35.031375 ], [ 138.596336, -35.030991 ], [ 138.595675, -35.030238 ], [ 138.596186, -35.037534 ], [ 138.603896, -35.036037 ], [ 138.603737, -35.034095 ], [ 138.609926, -35.033948 ], [ 138.609845, -35.032867 ], [ 138.62057, -35.03234 ], [ 138.620766, -35.030869 ], [ 138.621995, -35.030806 ] ] ] } },
{ "type": "Feature", "properties": { "name": "Brown Hill Creek" }, "geometry": { "type": "Polygon", "coordinates": [ [ [ 138.652271, -34.97277 ], [ 138.651454, -34.972341 ], [ 138.650822, -34.971719 ], [ 138.640735, -34.972169 ], [ 138.638444, -34.975423 ], [ 138.639094, -34.978008 ], [ 138.636301, -34.978888 ], [ 138.636381, -34.980963 ], [ 138.630599, -34.983753 ], [ 138.629329, -34.983975 ], [ 138.629339, -34.984653 ], [ 138.628828, -34.986034 ], [ 138.629193, -34.991607 ], [ 138.627291, -34.991697 ], [ 138.62734, -34.99294 ], [ 138.62801, -34.993125 ], [ 138.628027, -34.99341 ], [ 138.633721, -34.993156 ], [ 138.634008, -34.99383 ], [ 138.636653, -34.993658 ], [ 138.63663, -34.993384 ], [ 138.637862, -34.9917 ], [ 138.637499, -34.991204 ], [ 138.650987, -34.990503 ], [ 138.651702, -34.988843 ], [ 138.652624, -34.989339 ], [ 138.653594, -34.989549 ], [ 138.653916, -34.989879 ], [ 138.654079, -34.990334 ], [ 138.652259, -34.990437 ], [ 138.652733, -34.996741 ], [ 138.657595, -34.996481 ], [ 138.657635, -34.99694 ], [ 138.659039, -34.99751 ], [ 138.663404, -34.994737 ], [ 138.668297, -34.996986 ], [ 138.669999, -34.992667 ], [ 138.671826, -34.990058 ], [ 138.667408, -34.988682 ], [ 138.665706, -34.987668 ], [ 138.661004, -34.986751 ], [ 138.660836, -34.984748 ], [ 138.665873, -34.981165 ], [ 138.664387, -34.979977 ], [ 138.665901, -34.97894 ], [ 138.664516, -34.977772 ], [ 138.665746, -34.976893 ], [ 138.658971, -34.970539 ], [ 138.658672, -34.970532 ], [ 138.654835, -34.972834 ], [ 138.653571, -34.973012 ], [ 138.652271, -34.97277 ] ] ] } },
{ "type": "Feature", "properties": { "name": "Clapham" }, "geometry": { "type": "Polygon", "coordinates": [ [ [ 138.606623, -34.993926 ], [ 138.610257, -34.98711 ], [ 138.61008, -34.985083 ], [ 138.601154, -34.985541 ], [ 138.60173, -34.994007 ], [ 138.601896, -34.994174 ], [ 138.602026, -34.995861 ], [ 138.601907, -34.995868 ], [ 138.602009, -34.997177 ], [ 138.602258, -34.997164 ], [ 138.6035, -34.997781 ], [ 138.605349, -34.995844 ], [ 138.606623, -34.993926 ] ] ] } },
{ "type": "Feature", "properties": { "name": "Clarence Gardens" }, "geometry": { "type": "Polygon", "coordinates": [ [ [ 138.581874, -34.967924 ], [ 138.581767, -34.966815 ], [ 138.572983, -34.967267 ], [ 138.573757, -34.978134 ], [ 138.582579, -34.977705 ], [ 138.581874, -34.967924 ] ] ] } },
{ "type": "Feature", "properties": { "name": "Colonel Light Gardens" }, "geometry": { "type": "Polygon", "coordinates": [ [ [ 138.59713, -34.990592 ], [ 138.601519, -34.990373 ], [ 138.600917, -34.981226 ], [ 138.600722, -34.981236 ], [ 138.600434, -34.976631 ], [ 138.591647, -34.977199 ], [ 138.592072, -34.982698 ], [ 138.591404, -34.982754 ], [ 138.591273, -34.980981 ], [ 138.58287, -34.981401 ], [ 138.583142, -34.98503 ], [ 138.591408, -34.984619 ], [ 138.591393, -34.984416 ], [ 138.592193, -34.984381 ], [ 138.592666, -34.990829 ], [ 138.59713, -34.990592 ] ] ] } },
{ "type": "Feature", "properties": { "name": "Coromandel Valley" }, "geometry": { "type": "Polygon", "coordinates": [ [ [ 138.62745, -35.054471 ], [ 138.632222, -35.054159 ], [ 138.631502, -35.053128 ], [ 138.630769, -35.052816 ], [ 138.631282, -35.050826 ], [ 138.628085, -35.048675 ], [ 138.628738, -35.04852 ], [ 138.628979, -35.047692 ], [ 138.631399, -35.047559 ], [ 138.629936, -35.046731 ], [ 138.63217, -35.046608 ], [ 138.63215, -35.046445 ], [ 138.635781, -35.04727 ], [ 138.636549, -35.044714 ], [ 138.63596, -35.044473 ], [ 138.635446, -35.04395 ], [ 138.635152, -35.044383 ], [ 138.632095, -35.044904 ], [ 138.632083, -35.043412 ], [ 138.630269, -35.043503 ], [ 138.629871, -35.038312 ], [ 138.632577, -35.03821 ], [ 138.632425, -35.036191 ], [ 138.635436, -35.030278 ], [ 138.63537, -35.030132 ], [ 138.62734, -35.030513 ], [ 138.625417, -35.029058 ], [ 138.625591, -35.029366 ], [ 138.625311, -35.030144 ], [ 138.625461, -35.03062 ], [ 138.620766, -35.030869 ], [ 138.619329, -35.039082 ], [ 138.619365, -35.040007 ], [ 138.618759, -35.040028 ], [ 138.617064, -35.041244 ], [ 138.616521, -35.041725 ], [ 138.616903, -35.042028 ], [ 138.613908, -35.044695 ], [ 138.614132, -35.04738 ], [ 138.613586, -35.047585 ], [ 138.613164, -35.047274 ], [ 138.611849, -35.048028 ], [ 138.611791, -35.048253 ], [ 138.612515, -35.049811 ], [ 138.612178, -35.050589 ], [ 138.611671, -35.051112 ], [ 138.611507, -35.051866 ], [ 138.611253, -35.052014 ], [ 138.610418, -35.051905 ], [ 138.610003, -35.052048 ], [ 138.609946, -35.052251 ], [ 138.611565, -35.053555 ], [ 138.612048, -35.054319 ], [ 138.613994, -35.054314 ], [ 138.614782, -35.054457 ], [ 138.616316, -35.055235 ], [ 138.616693, -35.056242 ], [ 138.61634, -35.057232 ], [ 138.616553, -35.057472 ], [ 138.61799, -35.057946 ], [ 138.618485, -35.058341 ], [ 138.61879, -35.059156 ], [ 138.619012, -35.059265 ], [ 138.619096, -35.060059 ], [ 138.619455, -35.060769 ], [ 138.621217, -35.061884 ], [ 138.621667, -35.061941 ], [ 138.621349, -35.058045 ], [ 138.627752, -35.057641 ], [ 138.62745, -35.054471 ] ] ] } },
{ "type": "Feature", "properties": { "name": "Crafers West" }, "geometry": { "type": "Polygon", "coordinates": [ [ [ 138.701868, -34.998706 ], [ 138.701293, -34.998044 ], [ 138.7004, -34.996121 ], [ 138.699948, -34.99549 ], [ 138.699026, -34.994882 ], [ 138.697468, -34.994316 ], [ 138.696444, -34.993754 ], [ 138.695458, -34.992736 ], [ 138.694872, -34.991405 ], [ 138.694584, -34.988403 ], [ 138.693463, -34.986085 ], [ 138.691492, -34.984908 ], [ 138.689228, -34.984337 ], [ 138.688329, -34.983473 ], [ 138.688004, -34.98291 ], [ 138.687841, -34.982007 ], [ 138.687316, -34.981342 ], [ 138.686411, -34.978959 ], [ 138.686435, -34.978096 ], [ 138.686136, -34.976872 ], [ 138.684933, -34.976067 ], [ 138.684352, -34.976194 ], [ 138.682108, -34.97615 ], [ 138.677893, -34.975447 ], [ 138.675338, -34.974486 ], [ 138.670041, -34.978219 ], [ 138.669963, -34.978993 ], [ 138.667416, -34.980781 ], [ 138.666999, -34.980366 ], [ 138.660836, -34.984748 ], [ 138.661004, -34.986751 ], [ 138.665706, -34.987668 ], [ 138.667408, -34.988682 ], [ 138.671826, -34.990058 ], [ 138.669999, -34.992667 ], [ 138.668297, -34.996986 ], [ 138.663404, -34.994737 ], [ 138.659039, -34.99751 ], [ 138.665213, -35.000019 ], [ 138.663257, -35.002059 ], [ 138.66398, -35.00269 ], [ 138.665209, -35.003418 ], [ 138.667719, -35.004648 ], [ 138.66837, -35.005243 ], [ 138.670562, -35.006058 ], [ 138.674863, -35.006525 ], [ 138.676411, -35.007221 ], [ 138.679821, -35.007753 ], [ 138.681387, -35.007458 ], [ 138.677257, -35.01335 ], [ 138.679447, -35.013902 ], [ 138.680806, -35.012963 ], [ 138.683373, -35.012932 ], [ 138.684758, -35.012713 ], [ 138.685416, -35.012713 ], [ 138.687612, -35.013462 ], [ 138.690042, -35.013101 ], [ 138.697737, -35.013514 ], [ 138.699218, -35.013109 ], [ 138.700015, -35.012247 ], [ 138.700497, -35.010672 ], [ 138.700856, -35.010113 ], [ 138.701377, -35.009699 ], [ 138.702407, -35.007761 ], [ 138.702556, -35.006436 ], [ 138.703352, -35.006913 ], [ 138.704302, -35.005858 ], [ 138.703518, -35.005545 ], [ 138.7033, -35.0049 ], [ 138.702184, -35.004467 ], [ 138.702604, -35.004173 ], [ 138.702085, -35.003697 ], [ 138.702374, -35.003573 ], [ 138.701478, -35.002853 ], [ 138.703186, -35.001213 ], [ 138.70286, -35.000097 ], [ 138.702197, -34.998891 ], [ 138.701868, -34.998706 ] ] ] } },
{ "type": "Feature", "properties": { "name": "Craigburn Farm" }, "geometry": { "type": "Polygon", "coordinates": [ [ [ 138.618438, -35.032441 ], [ 138.609845, -35.032867 ], [ 138.609926, -35.033948 ], [ 138.603737, -35.034095 ], [ 138.603896, -35.036037 ], [ 138.596186, -35.037534 ], [ 138.595895, -35.033368 ], [ 138.594308, -35.0337 ], [ 138.592963, -35.033774 ], [ 138.591702, -35.034392 ], [ 138.591033, -35.034502 ], [ 138.590326, -35.035149 ], [ 138.590142, -35.035949 ], [ 138.588828, -35.036849 ], [ 138.586676, -35.037596 ], [ 138.586311, -35.037955 ], [ 138.586594, -35.03813 ], [ 138.586779, -35.03926 ], [ 138.587425, -35.039661 ], [ 138.587329, -35.040326 ], [ 138.587454, -35.040536 ], [ 138.588996, -35.041066 ], [ 138.589511, -35.041415 ], [ 138.590258, -35.040988 ], [ 138.590929, -35.042399 ], [ 138.591964, -35.042241 ], [ 138.594177, -35.044169 ], [ 138.594947, -35.044437 ], [ 138.595052, -35.045728 ], [ 138.596642, -35.045687 ], [ 138.597559, -35.047301 ], [ 138.598412, -35.048147 ], [ 138.599045, -35.049407 ], [ 138.599485, -35.049353 ], [ 138.599996, -35.04875 ], [ 138.602394, -35.049089 ], [ 138.602977, -35.04867 ], [ 138.603142, -35.047973 ], [ 138.603403, -35.047671 ], [ 138.603656, -35.047631 ], [ 138.604357, -35.048051 ], [ 138.605379, -35.048362 ], [ 138.606149, -35.049661 ], [ 138.60646, -35.049893 ], [ 138.607057, -35.049715 ], [ 138.607721, -35.049152 ], [ 138.608039, -35.049131 ], [ 138.60833, -35.04929 ], [ 138.608857, -35.050048 ], [ 138.609524, -35.050467 ], [ 138.610245, -35.049796 ], [ 138.611408, -35.049387 ], [ 138.611441, -35.049017 ], [ 138.610667, -35.048194 ], [ 138.610755, -35.047808 ], [ 138.611656, -35.047735 ], [ 138.612215, -35.04735 ], [ 138.612272, -35.046909 ], [ 138.612452, -35.046732 ], [ 138.612834, -35.046785 ], [ 138.61341, -35.047538 ], [ 138.61382, -35.047589 ], [ 138.614132, -35.04738 ], [ 138.613908, -35.044695 ], [ 138.616903, -35.042028 ], [ 138.616521, -35.041725 ], [ 138.617064, -35.041244 ], [ 138.618759, -35.040028 ], [ 138.619365, -35.040007 ], [ 138.619378, -35.038764 ], [ 138.62057, -35.03234 ], [ 138.618438, -35.032441 ] ] ] } },
{ "type": "Feature", "properties": { "name": "Cumberland Park" }, "geometry": { "type": "Polygon", "coordinates": [ [ [ 138.591053, -34.970006 ], [ 138.590787, -34.966361 ], [ 138.581767, -34.966815 ], [ 138.582579, -34.977705 ], [ 138.591649, -34.977248 ], [ 138.591053, -34.970006 ] ] ] } },
{ "type": "Feature", "properties": { "name": "Daw Park" }, "geometry": { "type": "MultiPolygon", "coordinates": [ [ [ [ 138.592535, -34.989033 ], [ 138.592193, -34.984381 ], [ 138.591393, -34.984416 ], [ 138.591408, -34.984619 ], [ 138.583142, -34.98503 ], [ 138.583715, -34.992392 ], [ 138.592702, -34.991972 ], [ 138.592535, -34.989033 ] ] ], [ [ [ 138.58838, -34.977411 ], [ 138.582579, -34.977705 ], [ 138.58287, -34.981401 ], [ 138.591273, -34.980981 ], [ 138.591404, -34.982754 ], [ 138.592072, -34.982698 ], [ 138.591649, -34.977248 ], [ 138.58838, -34.977411 ] ] ] ] } },
{ "type": "Feature", "properties": { "name": "Eden Hills" }, "geometry": { "type": "Polygon", "coordinates": [ [ [ 138.594314, -35.013975 ], [ 138.576539, -35.014927 ], [ 138.576695, -35.017234 ], [ 138.577408, -35.01789 ], [ 138.580063, -35.019094 ], [ 138.583884, -35.021845 ], [ 138.586423, -35.024206 ], [ 138.58802, -35.026313 ], [ 138.588932, -35.027258 ], [ 138.591563, -35.028443 ], [ 138.594172, -35.028408 ], [ 138.596336, -35.030991 ], [ 138.597341, -35.031546 ], [ 138.598617, -35.031583 ], [ 138.599521, -35.031184 ], [ 138.600506, -35.030482 ], [ 138.601467, -35.030151 ], [ 138.603713, -35.030307 ], [ 138.604835, -35.030185 ], [ 138.607168, -35.029158 ], [ 138.607955, -35.028574 ], [ 138.608604, -35.027753 ], [ 138.609438, -35.026067 ], [ 138.608855, -35.018282 ], [ 138.60773, -35.017895 ], [ 138.607888, -35.017461 ], [ 138.607372, -35.016948 ], [ 138.606855, -35.016723 ], [ 138.60593, -35.016512 ], [ 138.604061, -35.016506 ], [ 138.603083, -35.015821 ], [ 138.602491, -35.015768 ], [ 138.601975, -35.009902 ], [ 138.601761, -35.009886 ], [ 138.598198, -35.012371 ], [ 138.597239, -35.01286 ], [ 138.594246, -35.012836 ], [ 138.594314, -35.013975 ] ] ] } },
{ "type": "Feature", "properties": { "name": "Glenalta" }, "geometry": { "type": "Polygon", "coordinates": [ [ [ 138.633704, -35.01337 ], [ 138.633124, -35.00591 ], [ 138.624394, -35.006347 ], [ 138.623325, -35.009553 ], [ 138.623191, -35.011711 ], [ 138.622756, -35.013305 ], [ 138.62231, -35.014134 ], [ 138.621594, -35.01498 ], [ 138.620363, -35.015998 ], [ 138.620448, -35.017094 ], [ 138.636896, -35.016252 ], [ 138.636947, -35.016162 ], [ 138.634019, -35.014366 ], [ 138.633749, -35.013955 ], [ 138.633704, -35.01337 ] ] ] } },
{ "type": "Feature", "properties": { "name": "Hawthorn" }, "geometry": { "type": "Polygon", "coordinates": [ [ [ 138.608909, -34.96937 ], [ 138.608611, -34.965472 ], [ 138.59729, -34.96602 ], [ 138.599526, -34.968384 ], [ 138.599284, -34.969592 ], [ 138.599821, -34.976687 ], [ 138.607441, -34.976253 ], [ 138.607909, -34.976675 ], [ 138.608646, -34.976662 ], [ 138.608607, -34.976195 ], [ 138.609426, -34.976154 ], [ 138.608909, -34.96937 ] ] ] } },
{ "type": "Feature", "properties": { "name": "Hawthorndene" }, "geometry": { "type": "Polygon", "coordinates": [ [ [ 138.635659, -35.016311 ], [ 138.620448, -35.017094 ], [ 138.620369, -35.016074 ], [ 138.619069, -35.01742 ], [ 138.618475, -35.018652 ], [ 138.618579, -35.019857 ], [ 138.619621, -35.021864 ], [ 138.619596, -35.022686 ], [ 138.619393, -35.023198 ], [ 138.622261, -35.023865 ], [ 138.621706, -35.024691 ], [ 138.621783, -35.024805 ], [ 138.623691, -35.024847 ], [ 138.624516, -35.027535 ], [ 138.625417, -35.029058 ], [ 138.62734, -35.030513 ], [ 138.63537, -35.030132 ], [ 138.635436, -35.030278 ], [ 138.633639, -35.033898 ], [ 138.634529, -35.034949 ], [ 138.63623, -35.035262 ], [ 138.638129, -35.035921 ], [ 138.639075, -35.035822 ], [ 138.641533, -35.037231 ], [ 138.641843, -35.037129 ], [ 138.642267, -35.036489 ], [ 138.642965, -35.03624 ], [ 138.644662, -35.036292 ], [ 138.646953, -35.036679 ], [ 138.649899, -35.036375 ], [ 138.651573, -35.036471 ], [ 138.651772, -35.03642 ], [ 138.651409, -35.03608 ], [ 138.651493, -35.035838 ], [ 138.651885, -35.035548 ], [ 138.65249, -35.035443 ], [ 138.652825, -35.035585 ], [ 138.652772, -35.036323 ], [ 138.652952, -35.036561 ], [ 138.655459, -35.037653 ], [ 138.65436, -35.027619 ], [ 138.652272, -35.027 ], [ 138.649429, -35.025567 ], [ 138.648994, -35.024992 ], [ 138.650535, -35.023126 ], [ 138.650589, -35.022385 ], [ 138.651224, -35.01987 ], [ 138.650947, -35.019676 ], [ 138.650595, -35.018261 ], [ 138.649561, -35.016875 ], [ 138.649537, -35.016303 ], [ 138.648654, -35.015738 ], [ 138.646742, -35.015872 ], [ 138.646382, -35.015326 ], [ 138.645418, -35.014972 ], [ 138.642382, -35.015375 ], [ 138.640815, -35.015921 ], [ 138.635659, -35.016311 ] ] ] } },
{ "type": "Feature", "properties": { "name": "Kingswood" }, "geometry": { "type": "Polygon", "coordinates": [ [ [ 138.616329, -34.977259 ], [ 138.618441, -34.977217 ], [ 138.618261, -34.974598 ], [ 138.618451, -34.97459 ], [ 138.618252, -34.974484 ], [ 138.618178, -34.973459 ], [ 138.618343, -34.973451 ], [ 138.618321, -34.97315 ], [ 138.618156, -34.973159 ], [ 138.617623, -34.965009 ], [ 138.608611, -34.965472 ], [ 138.609264, -34.97413 ], [ 138.609795, -34.974237 ], [ 138.614363, -34.97735 ], [ 138.616329, -34.977259 ] ] ] } },
{ "type": "Feature", "properties": { "name": "Leawood Gardens" }, "geometry": { "type": "Polygon", "coordinates": [ [ [ 138.681833, -34.976086 ], [ 138.681784, -34.975808 ], [ 138.680829, -34.974649 ], [ 138.677071, -34.970371 ], [ 138.674559, -34.966286 ], [ 138.671558, -34.962362 ], [ 138.666774, -34.962573 ], [ 138.667065, -34.967086 ], [ 138.665921, -34.967353 ], [ 138.663869, -34.968276 ], [ 138.661219, -34.969192 ], [ 138.658672, -34.970532 ], [ 138.658971, -34.970539 ], [ 138.665746, -34.976893 ], [ 138.664516, -34.977772 ], [ 138.665901, -34.97894 ], [ 138.664387, -34.979977 ], [ 138.665873, -34.981165 ], [ 138.666999, -34.980366 ], [ 138.667416, -34.980781 ], [ 138.669963, -34.978993 ], [ 138.670041, -34.978219 ], [ 138.675338, -34.974486 ], [ 138.677893, -34.975447 ], [ 138.681833, -34.976086 ] ] ] } },
{ "type": "Feature", "properties": { "name": "Lower Mitcham" }, "geometry": { "type": "Polygon", "coordinates": [ [ [ 138.607222, -34.976265 ], [ 138.600434, -34.976631 ], [ 138.600722, -34.981236 ], [ 138.600917, -34.981226 ], [ 138.601202, -34.985538 ], [ 138.61008, -34.985083 ], [ 138.610257, -34.98711 ], [ 138.610922, -34.985397 ], [ 138.611158, -34.982932 ], [ 138.610814, -34.981212 ], [ 138.609859, -34.978642 ], [ 138.609548, -34.978186 ], [ 138.609426, -34.976154 ], [ 138.608607, -34.976195 ], [ 138.608646, -34.976662 ], [ 138.607909, -34.976675 ], [ 138.607441, -34.976253 ], [ 138.607222, -34.976265 ] ] ] } },
{ "type": "Feature", "properties": { "name": "Lynton" }, "geometry": { "type": "Polygon", "coordinates": [ [ [ 138.611031, -34.999489 ], [ 138.610943, -34.998344 ], [ 138.610452, -34.998305 ], [ 138.611136, -34.997532 ], [ 138.610801, -34.993704 ], [ 138.606623, -34.993926 ], [ 138.605349, -34.995844 ], [ 138.602355, -34.998925 ], [ 138.602469, -35.000291 ], [ 138.605703, -35.000356 ], [ 138.606395, -34.99989 ], [ 138.607751, -34.999657 ], [ 138.609635, -35.000066 ], [ 138.610066, -34.999935 ], [ 138.610474, -35.000058 ], [ 138.611262, -34.999883 ], [ 138.611303, -34.999686 ], [ 138.611031, -34.999489 ] ] ] } },
{ "type": "Feature", "properties": { "name": "Melrose Park" }, "geometry": { "type": "Polygon", "coordinates": [ [ [ 138.582613, -34.992455 ], [ 138.583715, -34.992392 ], [ 138.582579, -34.977705 ], [ 138.573757, -34.978134 ], [ 138.574901, -34.992811 ], [ 138.582613, -34.992455 ] ] ] } },
{ "type": "Feature", "properties": { "name": "Mitcham" }, "geometry": { "type": "Polygon", "coordinates": [ [ [ 138.624865, -34.991793 ], [ 138.629193, -34.991607 ], [ 138.628828, -34.986034 ], [ 138.629339, -34.984653 ], [ 138.629362, -34.983834 ], [ 138.628703, -34.983719 ], [ 138.627991, -34.983058 ], [ 138.627817, -34.983066 ], [ 138.627247, -34.97522 ], [ 138.623008, -34.975433 ], [ 138.622812, -34.9739 ], [ 138.618226, -34.974113 ], [ 138.618252, -34.974484 ], [ 138.618451, -34.97459 ], [ 138.618261, -34.974598 ], [ 138.618441, -34.977217 ], [ 138.619283, -34.977173 ], [ 138.619443, -34.978089 ], [ 138.619656, -34.982535 ], [ 138.619013, -34.98291 ], [ 138.619094, -34.984884 ], [ 138.618264, -34.986265 ], [ 138.616213, -34.989319 ], [ 138.615758, -34.989673 ], [ 138.615195, -34.989728 ], [ 138.615209, -34.990194 ], [ 138.614276, -34.990957 ], [ 138.615917, -34.992286 ], [ 138.620908, -34.992091 ], [ 138.621185, -34.992046 ], [ 138.621381, -34.991735 ], [ 138.621756, -34.992056 ], [ 138.624865, -34.991793 ] ] ] } },
{ "type": "Feature", "properties": { "name": "Netherby" }, "geometry": { "type": "Polygon", "coordinates": [ [ [ 138.630207, -34.970644 ], [ 138.626933, -34.970807 ], [ 138.626439, -34.964559 ], [ 138.617623, -34.965009 ], [ 138.618156, -34.973159 ], [ 138.618321, -34.97315 ], [ 138.618343, -34.973451 ], [ 138.618178, -34.973459 ], [ 138.618226, -34.974113 ], [ 138.622812, -34.9739 ], [ 138.623008, -34.975433 ], [ 138.627247, -34.97522 ], [ 138.627202, -34.974444 ], [ 138.636234, -34.97399 ], [ 138.635962, -34.970369 ], [ 138.630207, -34.970644 ] ] ] } },
{ "type": "Feature", "properties": { "name": "Panorama" }, "geometry": { "type": "Polygon", "coordinates": [ [ [ 138.59713, -34.990592 ], [ 138.592666, -34.990829 ], [ 138.593177, -34.999342 ], [ 138.593306, -34.999648 ], [ 138.593782, -35.006208 ], [ 138.593918, -35.006366 ], [ 138.593884, -35.007592 ], [ 138.594272, -35.012843 ], [ 138.597239, -35.01286 ], [ 138.598198, -35.012371 ], [ 138.600981, -35.010446 ], [ 138.600762, -35.006364 ], [ 138.600952, -35.004754 ], [ 138.600709, -35.002577 ], [ 138.60078, -35.00165 ], [ 138.601327, -35.000173 ], [ 138.6035, -34.997781 ], [ 138.602258, -34.997164 ], [ 138.602009, -34.997177 ], [ 138.601896, -34.994174 ], [ 138.60173, -34.994007 ], [ 138.601463, -34.990376 ], [ 138.59713, -34.990592 ] ] ] } },
{ "type": "Feature", "properties": { "name": "Pasadena" }, "geometry": { "type": "Polygon", "coordinates": [ [ [ 138.594246, -35.012836 ], [ 138.593918, -35.006366 ], [ 138.593782, -35.006208 ], [ 138.593306, -34.999648 ], [ 138.593177, -34.999342 ], [ 138.592702, -34.991972 ], [ 138.582054, -34.99249 ], [ 138.582677, -35.000289 ], [ 138.583644, -35.001648 ], [ 138.584045, -35.003493 ], [ 138.584543, -35.003643 ], [ 138.585468, -35.014429 ], [ 138.594314, -35.013975 ], [ 138.594246, -35.012836 ] ] ] } },
{ "type": "Feature", "properties": { "name": "Springfield" }, "geometry": { "type": "Polygon", "coordinates": [ [ [ 138.632359, -34.974182 ], [ 138.627202, -34.974444 ], [ 138.627817, -34.983066 ], [ 138.627991, -34.983058 ], [ 138.628703, -34.983719 ], [ 138.629362, -34.983834 ], [ 138.629329, -34.983975 ], [ 138.630599, -34.983753 ], [ 138.636381, -34.980963 ], [ 138.636301, -34.978888 ], [ 138.639094, -34.978008 ], [ 138.638444, -34.975423 ], [ 138.639561, -34.973835 ], [ 138.632359, -34.974182 ] ] ] } },
{ "type": "Feature", "properties": { "name": "St Marys" }, "geometry": { "type": "Polygon", "coordinates": [ [ [ 138.578577, -34.992665 ], [ 138.574901, -34.992811 ], [ 138.576539, -35.014927 ], [ 138.585468, -35.014429 ], [ 138.584543, -35.003643 ], [ 138.584045, -35.003493 ], [ 138.583644, -35.001648 ], [ 138.582677, -35.000289 ], [ 138.582054, -34.99249 ], [ 138.578577, -34.992665 ] ] ] } },
{ "type": "Feature", "properties": { "name": "Torrens Park" }, "geometry": { "type": "Polygon", "coordinates": [ [ [ 138.615204, -34.990016 ], [ 138.615195, -34.989728 ], [ 138.615758, -34.989673 ], [ 138.616213, -34.989319 ], [ 138.619094, -34.984884 ], [ 138.619013, -34.98291 ], [ 138.619656, -34.982535 ], [ 138.619283, -34.977173 ], [ 138.614363, -34.97735 ], [ 138.609795, -34.974237 ], [ 138.609264, -34.97413 ], [ 138.609548, -34.978186 ], [ 138.609859, -34.978642 ], [ 138.610954, -34.981675 ], [ 138.611158, -34.982932 ], [ 138.611079, -34.984535 ], [ 138.610514, -34.986606 ], [ 138.606623, -34.993926 ], [ 138.610801, -34.993704 ], [ 138.611136, -34.997532 ], [ 138.612204, -34.996326 ], [ 138.612323, -34.996482 ], [ 138.612669, -34.996012 ], [ 138.613729, -34.996166 ], [ 138.61368, -34.994578 ], [ 138.614876, -34.994576 ], [ 138.615015, -34.994445 ], [ 138.616034, -34.994345 ], [ 138.615917, -34.992286 ], [ 138.614276, -34.990957 ], [ 138.615209, -34.990194 ], [ 138.615204, -34.990016 ] ] ] } },
{ "type": "Feature", "properties": { "name": "Upper Sturt" }, "geometry": { "type": "Polygon", "coordinates": [ [ [ 138.674288, -35.019075 ], [ 138.676058, -35.01951 ], [ 138.678057, -35.02067 ], [ 138.678681, -35.021192 ], [ 138.679289, -35.021012 ], [ 138.679632, -35.021107 ], [ 138.679851, -35.020955 ], [ 138.680312, -35.021409 ], [ 138.678687, -35.022425 ], [ 138.678377, -35.022938 ], [ 138.677624, -35.023125 ], [ 138.676469, -35.023818 ], [ 138.675811, -35.024635 ], [ 138.67521, -35.025085 ], [ 138.673936, -35.025416 ], [ 138.673328, -35.025798 ], [ 138.672103, -35.026037 ], [ 138.671039, -35.025884 ], [ 138.667823, -35.023967 ], [ 138.662695, -35.023488 ], [ 138.661233, -35.023667 ], [ 138.660662, -35.023893 ], [ 138.65991, -35.023829 ], [ 138.659399, -35.023397 ], [ 138.658643, -35.023254 ], [ 138.658073, -35.022708 ], [ 138.657028, -35.022935 ], [ 138.656055, -35.022404 ], [ 138.654905, -35.022659 ], [ 138.653594, -35.021379 ], [ 138.651966, -35.02048 ], [ 138.651224, -35.01987 ], [ 138.650589, -35.022385 ], [ 138.650535, -35.023126 ], [ 138.648994, -35.024992 ], [ 138.649429, -35.025567 ], [ 138.652272, -35.027 ], [ 138.65436, -35.027619 ], [ 138.655306, -35.036856 ], [ 138.655581, -35.036469 ], [ 138.656352, -35.036404 ], [ 138.656717, -35.036573 ], [ 138.657115, -35.037056 ], [ 138.657185, -35.037538 ], [ 138.657394, -35.037541 ], [ 138.658139, -35.03698 ], [ 138.660296, -35.037721 ], [ 138.660811, -35.037172 ], [ 138.66143, -35.036895 ], [ 138.662087, -35.037115 ], [ 138.662123, -35.036685 ], [ 138.662308, -35.036514 ], [ 138.663223, -35.036508 ], [ 138.663062, -35.035226 ], [ 138.66326, -35.035066 ], [ 138.663793, -35.035401 ], [ 138.664385, -35.036501 ], [ 138.664801, -35.03654 ], [ 138.665076, -35.036092 ], [ 138.665514, -35.034527 ], [ 138.667589, -35.034004 ], [ 138.668466, -35.033651 ], [ 138.668849, -35.033271 ], [ 138.669993, -35.033155 ], [ 138.670485, -35.031472 ], [ 138.671233, -35.030756 ], [ 138.671681, -35.030659 ], [ 138.672189, -35.031039 ], [ 138.673287, -35.031008 ], [ 138.674166, -35.031446 ], [ 138.675257, -35.031492 ], [ 138.675546, -35.031335 ], [ 138.675624, -35.030507 ], [ 138.676142, -35.030048 ], [ 138.676484, -35.029198 ], [ 138.678225, -35.029222 ], [ 138.680307, -35.028848 ], [ 138.680982, -35.02823 ], [ 138.681427, -35.028345 ], [ 138.681869, -35.028235 ], [ 138.682485, -35.027528 ], [ 138.6822, -35.032671 ], [ 138.685691, -35.032091 ], [ 138.688474, -35.030906 ], [ 138.68964, -35.03093 ], [ 138.691447, -35.031865 ], [ 138.692979, -35.03228 ], [ 138.694703, -35.032329 ], [ 138.696892, -35.032941 ], [ 138.699446, -35.0329 ], [ 138.700629, -35.032269 ], [ 138.703372, -35.031409 ], [ 138.705026, -35.030589 ], [ 138.705545, -35.030016 ], [ 138.705541, -35.029154 ], [ 138.704568, -35.028478 ], [ 138.702951, -35.028424 ], [ 138.702832, -35.028235 ], [ 138.703033, -35.027817 ], [ 138.702755, -35.027539 ], [ 138.705561, -35.025594 ], [ 138.705394, -35.024238 ], [ 138.701669, -35.020611 ], [ 138.702697, -35.0202 ], [ 138.702666, -35.02001 ], [ 138.703757, -35.01986 ], [ 138.704735, -35.01941 ], [ 138.704841, -35.018955 ], [ 138.702529, -35.018894 ], [ 138.701754, -35.019229 ], [ 138.699996, -35.019631 ], [ 138.700143, -35.018041 ], [ 138.699072, -35.018454 ], [ 138.698629, -35.0183 ], [ 138.698604, -35.018033 ], [ 138.699013, -35.017439 ], [ 138.69853, -35.016666 ], [ 138.698581, -35.015478 ], [ 138.700797, -35.013116 ], [ 138.701853, -35.011323 ], [ 138.700781, -35.010741 ], [ 138.700497, -35.010672 ], [ 138.700015, -35.012247 ], [ 138.69968, -35.012689 ], [ 138.699218, -35.013109 ], [ 138.697737, -35.013514 ], [ 138.690042, -35.013101 ], [ 138.687612, -35.013462 ], [ 138.685416, -35.012713 ], [ 138.683373, -35.012932 ], [ 138.680806, -35.012963 ], [ 138.680254, -35.013242 ], [ 138.67848, -35.014857 ], [ 138.677249, -35.014987 ], [ 138.676267, -35.014678 ], [ 138.675584, -35.015608 ], [ 138.674288, -35.019075 ] ] ] } },
{ "type": "Feature", "properties": { "name": "Urrbrae" }, "geometry": { "type": "Polygon", "coordinates": [ [ [ 138.649201, -34.967427 ], [ 138.648223, -34.965858 ], [ 138.647648, -34.965289 ], [ 138.644977, -34.96394 ], [ 138.644074, -34.963325 ], [ 138.643505, -34.963683 ], [ 138.626439, -34.964559 ], [ 138.626933, -34.970807 ], [ 138.635962, -34.970369 ], [ 138.636234, -34.97399 ], [ 138.639561, -34.973835 ], [ 138.640735, -34.972169 ], [ 138.650822, -34.971719 ], [ 138.650382, -34.970783 ], [ 138.650055, -34.968897 ], [ 138.649201, -34.967427 ] ] ] } },
{ "type": "Feature", "properties": { "name": "Westbourne Park" }, "geometry": { "type": "Polygon", "coordinates": [ [ [ 138.593296, -34.977118 ], [ 138.599821, -34.976687 ], [ 138.599284, -34.969592 ], [ 138.599526, -34.968384 ], [ 138.59729, -34.96602 ], [ 138.590787, -34.966361 ], [ 138.591647, -34.977199 ], [ 138.593296, -34.977118 ] ] ] } }
]
}
